CELESTIS-02 & TAURUS R/B
1 25160U 98007D   23116.95900010  .00000081  00000+0  93768-4 0  9990
2 25160 107.9884 178.1888 0064108 293.0663 240.4572 14.21757443307633
CELESTIS-03 & TAURUS R/B
1 26034U 99070C   23117.55761248  .00103706  00000+0  20696-2 0  9993
2 26034  98.2766 163.6548 0008020 143.8353 216.3437 15.46429977269013
