[{"OBJECT_NAME":"CELESTIS-02","OBJECT_ID":"1998-007D","EPOCH":"2023-04-26T23:00:57.608640","MEAN_MOTION":14.21757443,"ECCENTRICITY":0.0064108,"INCLINATION":107.9884,"RA_OF_ASC_NODE":178.1888,"ARG_OF_PERICENTER":293.0663,"MEAN_ANOMALY":240.4572,"EPHEMERIS_TYPE":0,"CLASSIFICATION_TYPE":"U","NORAD_CAT_ID":25160,"ELEMENT_SET_NO":999,"REV_AT_EPOCH":30763,"BSTAR":9.3768e-5,"MEAN_MOTION_DOT":8.1e-7,"MEAN_MOTION_DDOT":0},{"OBJECT_NAME":"CELESTIS-03","OBJECT_ID":"1999-070C","EPOCH":"2023-04-27T13:22:57.718272","MEAN_MOTION":15.46429977,"ECCENTRICITY":0.000802,"INCLINATION":98.2766,"RA_OF_ASC_NODE":163.6548,"ARG_OF_PERICENTER":143.8353,"MEAN_ANOMALY":216.3437,"EPHEMERIS_TYPE":0,"CLASSIFICATION_TYPE":"U","NORAD_CAT_ID":26034,"ELEMENT_SET_NO":999,"REV_AT_EPOCH":26902,"BSTAR":0.0020696,"MEAN_MOTION_DOT":0.00103706,"MEAN_MOTION_DDOT":0}]
